1 45540U 20025K   22365.21719709  .00011262  00000-0  77325-3 0  9990
2 45540  53.0550 294.1516 0001693  62.1050 298.0110 15.06422576149574
1 45540U 20025K   22365.81431520  .00005965  00000-0  41880-3 0  9998
2 45540  53.0542 291.4695 0001693  61.9144 298.2016 15.06419297149667
1 45540U 20025K   23001.14605040 -.00001239  00000-0 -64295-4 0  9990
2 45540  53.0568 289.9833 0001577  51.5989 308.5142 15.06404811149137
1 45540U 20025K   23001.21240043  .00000473  00000-0  50682-4 0  9998
2 45540  53.0560 289.6860 0001788  45.5417 314.5718 15.06401264149729
1 45540U 20025K   23001.80953258 -.00006516  00000-0 -41911-3 0  9992
2 45540  53.0554 287.0026 0001768  63.6720 296.4450 15.06384314149811
1 45540U 20025K   23001.80953258 -.00006516  00000-0 -41911-3 0  9992
2 45540  53.0554 287.0026 0001768  63.6720 296.4450 15.06384314149237
1 45540U 20025K   23002.47300635 -.00003116  00000-0 -19045-3 0  9997
2 45540  53.0546 284.0256 0001766  62.9019 297.2149 15.06385859149915
1 45540U 20025K   23002.47300635 -.00003116  00000-0 -19045-3 0  9997
2 45540  53.0546 284.0256 0001766  62.9019 297.2149 15.06385859149331
1 45540U 20025K   23003.46820955  .00006311  00000-0  44217-3 0  9996
2 45540  53.0545 279.5576 0001686  60.8350 299.2807 15.06402261150062
1 45540U 20025K   23003.46820955  .00006311  00000-0  44217-3 0  9996
2 45540  53.0545 279.5576 0001686  60.8350 299.2807 15.06402261149486
1 45540U 20025K   23003.79994828  .00005475  00000-0  38620-3 0  9994
2 45540  53.0546 278.0687 0001699  63.9933 296.1231 15.06398706149530
1 45540U 20025K   23004.46340980  .00004087  00000-0  29304-3 0  9990
2 45540  53.0539 275.0898 0001603  62.8822 297.2330 15.06410811150214
1 45540U 20025K   23005.12686774  .00009737  00000-0  67118-3 0  9990
2 45540  53.0535 272.1111 0001556  63.8569 296.2580 15.06426182149731
1 45540U 20025K   23005.45859752  .00005346  00000-0  37727-3 0  9999
2 45540  53.0537 270.6222 0001636  64.5339 295.5819 15.06422650150365
1 45540U 20025K   23005.45859752  .00005346  00000-0  37727-3 0  9999
2 45540  53.0537 270.6222 0001636  64.5339 295.5819 15.06422650149789
1 45540U 20025K   23006.45380687 -.00004868  00000-0 -30821-3 0  9994
2 45540  53.0538 266.1547 0001605  62.4531 297.6621 15.06389844149935
1 45540U 20025K   23006.71919908 -.00005305  00000-0 -33761-3 0  9990
2 45540  53.0539 264.9632 0001695  68.4699 291.6470 15.06384609150557
1 45540U 20025K   23007.11728459 -.00002354  00000-0 -13926-3 0  9996
2 45540  53.0539 263.1765 0001725  69.7010 290.4165 15.06381985150619
1 45540U 20025K   23007.78075440  .00005679  00000-0  39988-3 0  9991
2 45540  53.0537 260.1997 0001640  66.1215 293.9945 15.06398077150710
1 45540U 20025K   23007.78075440  .00005679  00000-0  39988-3 0  9991
2 45540  53.0537 260.1997 0001640  66.1215 293.9945 15.06398077150136
1 45540U 20025K   23008.37787949  .00005176  00000-0  36615-3 0  9997
2 45540  53.0535 257.5183 0001505  62.3129 297.8012 15.06395676150223
1 45540U 20025K   23008.51057549  .00003776  00000-0  27231-3 0  9997
2 45540  53.0511 256.9245 0001841  71.8453 288.2736 15.06393195150824
1 45540U 20025K   23008.77596683 -.00001232  00000-0 -63873-4 0  9992
2 45540  53.0507 255.7318 0001840  71.4026 288.7162 15.06383785150864
1 45540U 20025K   23008.77596683 -.00001232  00000-0 -63873-4 0  9992
2 45540  53.0507 255.7318 0001840  71.4026 288.7162 15.06383785150280
1 45540U 20025K   23009.43943361  .00002890  00000-0  21286-3 0  9995
2 45540  53.0519 252.7528 0001479  79.8525 280.2630 15.06396560150964
1 45540U 20025K   23009.43943361  .00002890  00000-0  21286-3 0  9995
2 45540  53.0519 252.7528 0001479  79.8525 280.2630 15.06396560150380
1 45540U 20025K   23010.43463801  .00005963  00000-0  41885-3 0  9994
2 45540  53.0506 248.2850 0001499  83.7317 276.3843 15.06402712151110
1 45540U 20025K   23010.76637202  .00003453  00000-0  25059-3 0  9995
2 45540  53.0505 246.7956 0001484  84.5084 275.6074 15.06400893151164
1 45540U 20025K   23010.76637202  .00003453  00000-0  25059-3 0  9995
2 45540  53.0505 246.7956 0001484  84.5084 275.6074 15.06400893150589
1 45540U 20025K   23011.36349387  .00001625  00000-0  12794-3 0  9997
2 45540  53.0503 244.1149 0001573  79.8812 280.2354 15.06398754151258
1 45540U 20025K   23012.02696201  .00001568  00000-0  12413-3 0  9995
2 45540  53.0483 241.1328 0001113  87.6347 272.4769 15.06396938150772
1 45540U 20025K   23012.88947118  .00001863  00000-0  14390-3 0  9999
2 45540  53.0511 237.2632 0001526  95.3535 264.7628 15.06402014151481
1 45540U 20025K   23013.42024749  .00003038  00000-0  22277-3 0  9995
2 45540  53.0495 234.8836 0002302  81.2249 278.9000 15.06404240151563
1 45540U 20025K   23013.42024749  .00003038  00000-0  22277-3 0  9995
2 45540  53.0495 234.8836 0002302  81.2249 278.9000 15.06404240150988
1 45540U 20025K   23013.68563745  .00000949  00000-0  82586-4 0  9995
2 45540  53.0508 233.6891 0001587  85.5247 274.5923 15.06395280151025
1 45540U 20025K   23013.88467554  .00002158  00000-0  16372-3 0  9991
2 45540  53.0511 232.7954 0001491  86.7822 273.3338 15.06400650151637
1 45540U 20025K   23014.87988017  .00001367  00000-0  11068-3 0  9991
2 45540  53.0511 228.3272 0001407  93.4892 266.6258 15.06398456151209
1 45540U 20025K   23015.54335119  .00000969  00000-0  83969-4 0  9992
2 45540  53.0512 225.3492 0001439  97.9568 262.1584 15.06394418151886
1 45540U 20025K   23015.87508372  .00002448  00000-0  18318-3 0  9990
2 45540  53.0514 223.8598 0001315  95.5466 264.5673 15.06401334151939
1 45540U 20025K   23016.40586157  .00001364  00000-0  11044-3 0  9992
2 45540  53.0520 221.4793 0001421  94.2592 265.8560 15.06395684151435
1 45540U 20025K   23016.53855796  .00000032  00000-0  21023-4 0  9994
2 45540  53.0517 220.8819 0001344  96.9434 263.1708 15.06390371152031
1 45540U 20025K   23016.67125488  .00000547  00000-0  55653-4 0  9994
2 45540  53.0518 220.2855 0001355  94.3306 265.7838 15.06389930151476
1 45540U 20025K   23016.73760049  .00000688  00000-0  65077-4 0  9996
2 45540  53.0517 219.9874 0001349  94.0254 266.0889 15.06391712152060
1 45540U 20025K   23017.53375969  .00001155  00000-0  96422-4 0  9996
2 45540  53.0518 216.4133 0001316  90.8903 269.2237 15.06396593152187
1 45540U 20025K   23017.79914583  .00001293  00000-0  10569-3 0  9995
2 45540  53.0517 215.2217 0001320  90.4858 269.6282 15.06398126152229
1 45540U 20025K   23017.79914583  .00001293  00000-0  10569-3 0  9995
2 45540  53.0517 215.2217 0001320  90.4858 269.6282 15.06398126151644
1 45540U 20025K   23018.79434621  .00002982  00000-0  21904-3 0  9997
2 45540  53.0520 210.7536 0001224  92.1043 268.0086 15.06396497152375
1 45540U 20025K   23019.25877970  .00001933  00000-0  14865-3 0  9990
2 45540  53.0520 208.6686 0001271  91.1232 268.9903 15.06390849151863
1 45540U 20025K   23019.52416624 -.00000405  00000-0 -83202-5 0  9993
2 45540  53.0516 207.4770 0001324  92.2639 267.8502 15.06397658152488
1 45540U 20025K   23019.85590085 -.00000009  00000-0  18263-4 0  9996
2 45540  53.0520 205.9882 0001329  86.2328 273.8812 15.06396364152533
1 45540U 20025K   23020.65205808  .00000016  00000-0  19945-4 0  9997
2 45540  53.0525 202.4140 0001290  85.1134 275.0002 15.06402908152073
1 45540U 20025K   23021.44822596  .00001269  00000-0  10409-3 0  9990
2 45540  53.0524 198.8386 0001331  85.4881 274.6260 15.06389360152190
1 45540U 20025K   23022.64247250 -.00000828  00000-0 -36728-4 0  9996
2 45540  53.0534 193.4783 0001338  88.4874 271.6268 15.06394025152374
1 45540U 20025K   23023.17324343 -.00000289  00000-0 -49341-6 0  9992
2 45540  53.0534 191.0960 0001325  82.6298 277.4841 15.06399463152458
1 45540U 20025K   23024.43383496  .00001188  00000-0  98637-4 0  9993
2 45540  53.0527 185.4363 0001250  79.2894 280.8235 15.06392328152644
1 45540U 20025K   23024.76556451  .00001448  00000-0  11609-3 0  9994
2 45540  53.0526 183.9468 0001271  79.5833 280.5299 15.06399961152693
1 45540U 20025K   23025.42903906 -.00000429  00000-0 -99196-5 0  9998
2 45540  53.0521 180.9685 0001293  79.1602 280.9532 15.06395004153374
1 45540U 20025K   23025.42903906 -.00000429  00000-0 -99196-5 0  9998
2 45540  53.0521 180.9685 0001293  79.1602 280.9532 15.06395004152799
1 45540U 20025K   23025.76077028  .00000074  00000-0  23876-4 0  9997
2 45540  53.0513 179.4787 0001385  86.1187 273.9960 15.06397843153425
1 45540U 20025K   23026.55693135  .00000763  00000-0  70140-4 0  9999
2 45540  53.0529 175.9035 0001332  89.5786 270.5355 15.06396431153549
1 45540U 20025K   23026.62327795  .00000859  00000-0  76531-4 0  9999
2 45540  53.0531 175.6056 0001314  89.9142 270.1998 15.06396524152970
1 45540U 20025K   23027.55213960 -.00000058  00000-0  14987-4 0  9999
2 45540  53.0519 171.4371 0001222  91.8813 268.2315 15.06391669153691
1 45540U 20025K   23027.61848550  .00000170  00000-0  30281-4 0  9994
2 45540  53.0525 171.1386 0001172  94.7630 265.3493 15.06392660153703
1 45540U 20025K   23027.61848550  .00000170  00000-0  30281-4 0  9994
2 45540  53.0525 171.1386 0001172  94.7630 265.3493 15.06392660153129
1 45540U 20025K   23028.54734170 -.00001450  00000-0 -78509-4 0  9998
2 45540  53.0525 166.9689 0000971  97.1622 262.9477 15.06401095153848
1 45540U 20025K   23028.74637780 -.00001109  00000-0 -55548-4 0  9998
2 45540  53.0528 166.0743 0001132 104.2492 255.8622 15.06405852153879
1 45540U 20025K   23028.74637780 -.00001109  00000-0 -55548-4 0  9998
2 45540  53.0528 166.0743 0001132 104.2492 255.8622 15.06405852153295
1 45540U 20025K   23029.07811522  .00000787  00000-0  71746-4 0  9990
2 45540  53.0539 164.5843 0001201 100.6408 259.4716 15.06394993153348
1 45540U 20025K   23029.74159009  .00001214  00000-0  10037-3 0  9990
2 45540  53.0546 161.6072 0001093  88.8728 271.2386 15.06388229154025
1 45540U 20025K   23029.74159009  .00001214  00000-0  10037-3 0  9990
2 45540  53.0546 161.6072 0001093  88.8728 271.2386 15.06388229153440
1 45540U 20025K   23030.33871353 -.00000072  00000-0  14060-4 0  9993
2 45540  53.0538 158.9272 0001034  89.9282 270.1825 15.06391671154110
1 45540U 20025K   23030.67044099 -.00000143  00000-0  92510-5 0  9995
2 45540  53.0533 157.4398 0000933  82.4681 277.6414 15.06402045154165
1 45540U 20025K   23030.67044099 -.00000143  00000-0  92510-5 0  9995
2 45540  53.0533 157.4398 0000933  82.4681 277.6414 15.06402045153580
1 45540U 20025K   23031.33391228  .00000819  00000-0  73860-4 0  9993
2 45540  53.0530 154.4611 0001083  82.1825 277.9287 15.06393936153686
1 45540U 20025K   23031.53295206  .00001012  00000-0  86787-4 0  9992
2 45540  53.0533 153.5680 0000750  81.6850 278.4224 15.06393186154299
1 45540U 20025K   23031.73198866  .00000562  00000-0  56625-4 0  9995
2 45540  53.0525 152.6729 0001169  78.4946 281.6174 15.06402680154323
1 45540U 20025K   23031.73198866  .00000562  00000-0  56625-4 0  9995
2 45540  53.0525 152.6729 0001169  78.4946 281.6174 15.06402680153748
